353P/McNaught,e,28.4101,121.4571,230.5307,4.170442,0.1157260,0.46966532,337.2703,12/17.0/2025,2000,g 14.5,4.0
# From MPEC 2025-W75
354P/LINEAR,e,5.2511,320.0557,133.0032,2.290220,0.2843729,0.12445634,225.9297,12/17.0/2025,2000,g 15.5,4.0
# From MPEC 2025-W75
355P/LINEAR-NEAT,e,11.0461,51.4216,336.2469,3.466555,0.1527063,0.50787416,95.4192,12/17.0/2025,2000,g 15.5,2.0
# From MPEC 2025-W75
356P/WISE,e,9.6400,160.7448,226.2903,4.150976,0.1165410,0.35570089,339.3218,12/17.0/2025,2000,g 14.0,4.0
# From MPEC 2025-W75
357P/Hill,e,6.3134,44.5355,1.5535,4.454380,0.1048391,0.43589681,288.5180,12/17.0/2025,2000,g 15.5,4.0
# From MPEC 2025-W75
358P/PANSTARRS,e,11.0667,85.6656,299.2984,3.145404,0.1766808,0.23942088,135.8139,12/17.0/2025,2000,g 18.0,4.0
# From MPEC 2025-W75
359P/LONEOS,e,10.2590,149.6903,200.3028,4.643079,0.0985133,0.32298288,299.3756,12/17.0/2025,2000,g 13.5,4.0
# From MPEC 2025-W75
360P/WISE,e,24.1132,2.0675,354.4059,3.699996,0.1384848,0.49967009,60.8056,12/17.0/2025,2000,g 19.5,6.0
# From MPEC 2025-W75
361P/Spacewatch,e,13.8956,203.2114,219.1662,4.932736,0.0899647,0.43941707,244.5738,12/17.0/2025,2000,g 12.0,4.0
# From MPEC 2025-W75
363P/Lemmon,e,5.3938,146.7516,340.7905,3.575650,0.1457711,0.51861514,58.1243,12/17.0/2025,2000,g 17.5,4.0
# From MPEC 2025-W75
364P/PANSTARRS,e,11.8344,45.6809,212.9611,2.903444,0.1992204,0.71609170,189.3805,12/17.0/2025,2000,g 17.0,2.0
# From MPEC 2025-W75
365P/PANSTARRS,e,9.8446,86.2994,67.7660,3.156321,0.1757650,0.58181163,140.4964,12/17.0/2025,2000,g 17.0,4.0
# From MPEC 2025-W75
366P/Spacewatch,e,8.8561,70.7580,152.9353,3.500342,0.1505006,0.34868586,48.1847,12/17.0/2025,2000,g 15.0,4.0
# From MPEC 2025-W75
367P/Catalina,e,8.4580,58.7099,172.6090,3.511552,0.1497806,0.28019042,50.8573,12/17.0/2025,2000,g 17.5,2.0
# From MPEC 2025-W75
368P/NEAT,e,15.4870,257.7812,119.0587,5.536428,0.0756588,0.62525851,200.5443,12/17.0/2025,2000,g 14.0,4.0
# From MPEC 2025-W75
369P/Hill,e,10.3204,47.2686,13.2697,4.377978,0.1075954,0.55581767,281.2287,12/17.0/2025,2000,g 15.0,4.0
# From MPEC 2025-W75
370P/NEAT,e,19.4193,55.0667,356.8243,6.441769,0.0602832,0.61483463,165.4448,12/17.0/2025,2000,g 13.0,4.0
# From MPEC 2025-W75
371P/LINEAR-Skiff,e,17.3883,67.2242,308.6200,4.180542,0.1153069,0.47641543,302.9111,12/17.0/2025,2000,g 16.0,4.0
# From MPEC 2025-W75
372P/McNaught,e,9.4988,325.7604,27.6704,4.513798,0.1027758,0.15103788,268.6468,12/17.0/2025,2000,g 13.5,4.0
# From MPEC 2025-W75
373P/Rinner,e,13.7724,231.9486,221.1515,3.796175,0.1332554,0.39382888,325.0848,12/17.0/2025,2000,g 14.5,4.0
# From MPEC 2025-W75
374P/Larson,e,10.7555,7.8338,51.6332,4.971510,0.0889143,0.46345496,224.7747,12/17.0/2025,2000,g 14.0,4.0
# From MPEC 2025-W75
375P/Hill,e,17.3799,359.8020,119.4944,5.544947,0.0754845,0.66039423,192.4317,12/17.0/2025,2000,g 16.0,4.0
# From MPEC 2025-W75
376P/LONEOS,e,1.1662,312.8527,285.3031,5.753997,0.0714085,0.51390625,163.3542,12/17.0/2025,2000,g 12.5,4.0
# From MPEC 2025-W75
377P/Scotti,e,9.0421,225.8458,354.9694,6.693974,0.0569086,0.25177447,113.0044,12/17.0/2025,2000,g  9.5,4.0
# From MPEC 2025-W75
378P/McNaught,e,19.1587,93.7922,193.2552,6.285805,0.0625407,0.46285506,118.8023,12/17.0/2025,2000,g 12.0,4.0
# From MPEC 2025-W75
379P/Spacewatch,e,12.4298,183.5094,31.6059,3.483970,0.1515628,0.34998436,349.7142,12/17.0/2025,2000,g 15.0,4.0
# From MPEC 2025-W75
380P/PANSTARRS,e,8.0407,127.6410,87.4285,4.452267,0.1049137,0.33286064,258.7946,12/17.0/2025,2000,g 12.5,4.0
# From MPEC 2025-W75
381P/LINEAR-Spacewatch,e,28.3248,173.8312,173.3382,7.145243,0.0516034,0.68023866,117.4446,12/17.0/2025,2000,g 17.5,2.0
# From MPEC 2025-W75
382P/Larson,e,8.3016,169.4822,162.8025,5.884828,0.0690404,0.26236820,104.7434,12/17.0/2025,2000,g  8.0,4.0
# From MPEC 2025-W75
383P/Christensen,e,12.3205,207.8200,133.7423,3.549528,0.1473832,0.59841528,330.8770,12/17.0/2025,2000,g 18.0,4.0
# From MPEC 2025-W75
384P/Kowalski,e,7.2840,354.1875,37.6959,2.897092,0.1998760,0.61618446,90.7286,12/17.0/2025,2000,g 19.5,4.0
# From MPEC 2025-W75
385P/Hill,e,16.8165,356.9889,44.5126,4.289259,0.1109508,0.40168254,253.2513,12/17.0/2025,2000,g 13.0,4.0
# From MPEC 2025-W75
386P/PANSTARRS,e,15.2487,134.9174,353.1284,4.048261,0.1210045,0.41766854,235.1545,12/17.0/2025,2000,g 14.5,4.0
# From MPEC 2025-W75
387P/Boattini,e,8.9427,259.2103,162.8888,4.797674,0.0937903,0.73682494,214.8451,12/17.0/2025,2000,g 15.0,4.0
# From MPEC 2025-W75
388P/Gibbs,e,23.8692,37.0067,42.3859,5.240979,0.0821458,0.61928882,191.7874,12/17.0/2025,2000,g 13.0,4.0
# From MPEC 2025-W75
389P/SidingSpring,e,160.0757,218.8297,249.2847,5.628865,0.0738028,0.70596404,160.7225,12/17.0/2025,2000,g 16.0,4.0
# From MPEC 2025-W75
390P/Gibbs,e,18.5149,152.1800,232.5883,5.819078,0.0702139,0.70632622,147.1817,12/17.0/2025,2000,g 12.0,4.0
# From MPEC 2025-W75
391P/Kowalski,e,21.2514,124.7080,186.8307,4.693064,0.0969436,0.11832681,275.1778,12/17.0/2025,2000,g  8.0,4.0
# From MPEC 2025-W75
392P/LINEAR,e,4.9254,24.7897,71.9962,6.143407,0.0647277,0.68391425,134.8666,12/17.0/2025,2000,g 14.5,4.0
# From MPEC 2025-W75
393P/Spacewatch-Hill,e,16.7804,36.4044,329.1479,4.802082,0.0936612,0.11874765,209.9203,12/17.0/2025,2000,g 11.0,4.0
# From MPEC 2025-W75
394P/PANSTARRS,e,8.5276,98.0881,54.5054,4.325155,0.1095725,0.36865280,241.7733,12/17.0/2025,2000,g 16.0,2.4
# From MPEC 2025-W75
395P/Catalina-NEAT,e,3.5668,220.9356,100.7929,7.203186,0.0509820,0.41044192,71.1978,12/17.0/2025,2000,g 10.0,4.0
# From MPEC 2025-W75
396P/Leonard,e,5.4440,136.6019,8.3230,6.798387,0.0556026,0.41725518,127.9344,12/17.0/2025,2000,g 12.0,4.0
# From MPEC 2025-W75
397P/Lemmon,e,10.9176,8.1640,14.6235,3.832636,0.1313584,0.40438034,263.5353,12/17.0/2025,2000,g 12.0,4.0
# From MPEC 2025-W75
398P/Boattini,e,11.0283,127.4069,320.2986,3.123656,0.1785292,0.58376879,323.7682,12/17.0/2025,2000,g 15.5,4.0
# From MPEC 2025-W75
399P/PANSTARRS,e,13.3136,207.1039,214.4743,3.793818,0.1333796,0.44714210,222.5039,12/17.0/2025,2000,g 14.0,4.0
# From MPEC 2025-W75
400P/PANSTARRS,e,10.9251,176.3321,238.9795,3.561866,0.1466182,0.40948619,259.3912,12/17.0/2025,2000,g 15.5,2.8
# From MPEC 2025-W75
401P/McNaught,e,12.8016,359.9130,309.3141,5.775791,0.0710047,0.57827357,156.7299,12/17.0/2025,2000,g 12.5,4.0
# From MPEC 2025-W75
402P/LINEAR,e,30.8289,123.0349,327.0635,7.044559,0.0527137,0.43993413,77.0550,12/17.0/2025,2000,g  8.0,4.0
# From MPEC 2025-W75
403P/Catalina,e,12.3135,163.7139,277.8401,5.433641,0.0778158,0.50411918,149.0891,12/17.0/2025,2000,g 12.0,4.0
# From MPEC 2025-W75
404P/Bressi,e,9.8038,260.0355,168.8413,4.716234,0.0962301,0.12382263,74.9313,12/17.0/2025,2000,g 10.0,4.0
# From MPEC 2025-W75
405P/Lemmon,e,9.3740,3.2047,112.3090,3.603219,0.1441014,0.69028900,261.7860,12/17.0/2025,2000,g 17.5,4.0
# From MPEC 2025-W75
406P/Gibbs,e,1.2100,11.4964,352.4354,3.580017,0.1455045,0.54084749,279.2468,12/17.0/2025,2000,g 17.0,4.0
# From MPEC 2025-W75
407P/PANSTARRS-Fuls,e,4.8729,80.2414,92.9781,3.495464,0.1508158,0.37542839,326.7582,12/17.0/2025,2000,g 14.0,4.0
# From MPEC 2025-W75
408P/Novichonok-Gerke,e,19.3482,189.4519,226.7338,4.746862,0.0953003,0.26818562,111.3116,12/17.0/2025,2000,g 11.0,4.0
# From MPEC 2025-W75
409P/LONEOS-Hill,e,17.1548,143.6393,15.0396,6.032491,0.0665211,0.71042903,118.6000,12/17.0/2025,2000,g 14.0,4.0
# From MPEC 2025-W75
410P/NEAT-LINEAR,e,9.3888,139.8932,313.3567,6.656432,0.0573907,0.51163530,93.8960,12/17.0/2025,2000,g 12.5,4.0
# From MPEC 2025-W75
411P/Christensen,e,12.3871,77.6476,46.5880,5.812112,0.0703401,0.58192570,125.6121,12/17.0/2025,2000,g 13.5,4.0
# From MPEC 2025-W75
412P/WISE,e,8.9282,0.8288,155.8277,3.113016,0.1794453,0.47912524,330.4691,12/17.0/2025,2000,g 17.0,4.0
# From MPEC 2025-W75
413P/Larson,e,15.9525,38.9393,186.6865,3.737088,0.1364282,0.41745315,220.6890,12/17.0/2025,2000,g 14.0,4.0
# From MPEC 2025-W75
414P/STEREO,e,23.4068,257.8151,210.7110,2.792332,0.2112290,0.81228391,17.2545,12/17.0/2025,2000,g 19.0,4.0
# From MPEC 2025-W75
415P/Tenagra,e,31.8151,160.2575,345.9212,4.107377,0.1184015,0.19572631,209.0744,12/17.0/2025,2000,g 12.0,4.0
# From MPEC 2025-W75
416P/Scotti,e,3.3642,355.7230,134.4805,4.005805,0.1229333,0.45564555,216.8017,12/17.0/2025,2000,g 15.5,4.0
# From MPEC 2025-W75
417P/NEOWISE,e,11.3522,95.2736,142.1129,3.385340,0.1582343,0.53690187,277.7965,12/17.0/2025,2000,g 16.5,4.0
# From MPEC 2025-W75
418P/LINEAR,e,5.7865,277.2627,307.6570,5.087977,0.0858789,0.66414820,130.7576,12/17.0/2025,2000,g 13.0,4.0
# From MPEC 2025-W75
419P/PANSTARRS,e,2.7918,40.3773,187.7463,3.537603,0.1481291,0.27258770,224.9371,12/17.0/2025,2000,g 12.5,4.0
# From MPEC 2025-W75
420P/Hill,e,14.5222,173.3731,156.3991,5.473350,0.0769705,0.49492029,100.8543,12/17.0/2025,2000,g 11.5,4.0
# From MPEC 2025-W75
421P/McNaught,e,10.0748,55.3148,259.8401,5.073839,0.0862381,0.67438874,154.3105,12/17.0/2025,2000,g 14.0,4.0
# From MPEC 2025-W75
422P/Christensen,e,39.5799,36.0089,304.7329,6.272073,0.0627462,0.50542234,90.1632,12/17.0/2025,2000,g 11.0,4.0
# From MPEC 2025-W75
423P/Lemmon,e,8.3407,33.3003,81.1122,6.184688,0.0640807,0.12279439,98.6970,12/17.0/2025,2000,g  8.0,4.0
# From MPEC 2025-W75
424P/LaSagra,e,8.6822,51.1912,312.5766,4.421588,0.1060075,0.69011015,159.9226,12/17.0/2025,2000,g 17.0,4.0
# From MPEC 2025-W75
425P/Kowalski,e,16.4087,210.0917,201.0202,6.353673,0.0615413,0.54345833,95.2832,12/17.0/2025,2000,g 12.0,4.0
# From MPEC 2025-W75
426P/PANSTARRS,e,17.7840,280.3957,118.3896,3.186081,0.1733081,0.16089301,143.6460,12/17.0/2025,2000,g 13.5,4.0
# From MPEC 2025-X35
427P/ATLAS,e,11.8650,252.3262,99.6244,3.163592,0.1751594,0.31518305,176.0056,12/17.0/2025,2000,g 14.0,4.0
# From MPEC 2025-W75
428P/Gibbs,e,8.5025,299.3063,36.8795,3.489159,0.1512248,0.51808812,253.9970,12/17.0/2025,2000,g 15.0,4.0
# From MPEC 2025-W75
429P/LINEAR-Hill,e,7.5140,322.0006,75.7514,3.556381,0.1469575,0.49061190,212.3589,12/17.0/2025,2000,g 15.5,4.0
# From MPEC 2025-W75
430P/Scotti,e,4.4760,54.6385,94.4773,3.102701,0.1803409,0.50045386,265.9688,12/17.0/2025,2000,g 16.5,4.0
# From MPEC 2025-W75
